[{"OBJECT_NAME":"STARLINK-1775","OBJECT_ID":"2020-073M","EPOCH":"2026-03-10T00:00:02.999808","MEAN_MOTION":15.77531204,"ECCENTRICITY":7.989e-5,"INCLINATION":53.0433,"RA_OF_ASC_NODE":208.9003,"ARG_OF_PERICENTER":71.2079,"MEAN_ANOMALY":262.2455,"EPHEMERIS_TYPE":0,"CLASSIFICATION_TYPE":"U","NORAD_CAT_ID":46681,"ELEMENT_SET_NO":999,"REV_AT_EPOCH":597,"BSTAR":0.00064069936,"MEAN_MOTION_DOT":0.00109421,"MEAN_MOTION_DDOT":0},{"OBJECT_NAME":"JILIN-1 GAOFEN 03D10","OBJECT_ID":"2022-019S","EPOCH":"2026-03-08T20:38:14.093376","MEAN_MOTION":15.76826248,"ECCENTRICITY":0.00018625,"INCLINATION":97.369,"RA_OF_ASC_NODE":161.0294,"ARG_OF_PERICENTER":223.7306,"MEAN_ANOMALY":136.3813,"EPHEMERIS_TYPE":0,"CLASSIFICATION_TYPE":"U","NORAD_CAT_ID":51840,"ELEMENT_SET_NO":999,"REV_AT_EPOCH":22435,"BSTAR":0.0012715519,"MEAN_MOTION_DOT":0.00208587,"MEAN_MOTION_DDOT":0}]
